[{"OBJECT_NAME":"QIANFAN-71","OBJECT_ID":"2025-016S","EPOCH":"2026-03-09T21:11:40.299648","MEAN_MOTION":13.50996794,"ECCENTRICITY":0.00179065,"INCLINATION":88.9678,"RA_OF_ASC_NODE":94.0594,"ARG_OF_PERICENTER":96.7251,"MEAN_ANOMALY":263.5939,"EPHEMERIS_TYPE":0,"CLASSIFICATION_TYPE":"U","NORAD_CAT_ID":62801,"ELEMENT_SET_NO":999,"REV_AT_EPOCH":5900,"BSTAR":3.9490459e-5,"MEAN_MOTION_DOT":3.8e-7,"MEAN_MOTION_DDOT":0},{"OBJECT_NAME":"COSMOS 886 DEB","OBJECT_ID":"1976-126J","EPOCH":"2026-03-09T21:15:56.309760","MEAN_MOTION":12.96519014,"ECCENTRICITY":0.08881878,"INCLINATION":65.8322,"RA_OF_ASC_NODE":329.6051,"ARG_OF_PERICENTER":17.8083,"MEAN_ANOMALY":345.206,"EPHEMERIS_TYPE":0,"CLASSIFICATION_TYPE":"U","NORAD_CAT_ID":9652,"ELEMENT_SET_NO":999,"REV_AT_EPOCH":29599,"BSTAR":0.0012943963,"MEAN_MOTION_DOT":2.381e-5,"MEAN_MOTION_DDOT":0}]
